OBJECT_NAME,OBJECT_ID,EPOCH,MEAN_MOTION,ECCENTRICITY,INCLINATION,RA_OF_ASC_NODE,ARG_OF_PERICENTER,MEAN_ANOMALY,EPHEMERIS_TYPE,CLASSIFICATION_TYPE,NORAD_CAT_ID,ELEMENT_SET_NO,REV_AT_EPOCH,BSTAR,MEAN_MOTION_DOT,MEAN_MOTION_DDOT
SOYUZ-MS 26,2024-162A,2024-10-09T13:00:16.333344,15.49541134,0.0008027,51.6395,108.9836,61.2002,349.0996,0,U,61043,999,47612,6.8853E-04,3.8437E-04,0
SPACEMOBILE-003,2024-163A,2024-10-09T08:59:52.099584,15.17279934,0.001364,52.9762,258.3711,43.6099,316.5969,0,U,61045,999,410,3.2277E-04,6.208E-05,0
SPACEMOBILE-005,2024-163B,2024-10-09T07:19:10.050816,15.17511615,0.001421,52.9780,258.6563,47.6136,312.6057,0,U,61046,999,408,3.4828E-04,6.772E-05,0
SPACEMOBILE-001,2024-163C,2024-10-09T07:17:59.445600,15.17558797,0.001402,52.9745,258.6318,48.2338,311.9850,0,U,61047,999,408,3.4729E-04,6.761E-05,0
SPACEMOBILE-002,2024-163D,2024-10-09T05:36:25.270848,15.17832526,0.0013436,52.9784,258.9134,51.2001,309.0189,0,U,61048,999,407,4.0357E-04,7.973E-05,0
SPACEMOBILE-004,2024-163E,2024-10-09T07:06:45.129024,15.18071251,0.0013896,52.9784,258.5992,56.2066,304.0249,0,U,61049,999,408,8.0284E-04,1.6315E-04,0
STARLINK-11286 [DTC],2024-164A,2024-10-09T09:51:05.942880,15.76696038,0.0002098,53.1569,336.9203,42.7008,317.4175,0,U,61050,999,432,3.0762E-04,4.9917E-04,0
STARLINK-11252 [DTC],2024-164B,2024-10-09T09:44:01.398336,15.76779244,0.000165,53.1562,336.8866,137.0772,223.0378,0,U,61051,999,432,3.7146E-04,6.0713E-04,0
STARLINK-11284 [DTC],2024-164C,2024-10-09T09:37:01.447680,15.76666678,0.0001216,53.1552,336.8547,114.5373,245.5775,0,U,61052,999,432,3.6361E-04,5.9106E-04,0
STARLINK-11230 [DTC],2024-164D,2024-10-09T11:01:16.385952,15.76686061,0.0000901,53.1544,336.5050,92.2887,267.8237,0,U,61053,999,433,4.4794E-04,7.315E-04,0
STARLINK-11294 [DTC],2024-164E,2024-10-09T10:54:14.579424,15.76632454,0.0001243,53.1541,336.4742,109.7444,250.3711,0,U,61054,999,433,-1.242E-04,-2.0844E-04,0
STARLINK-11268 [DTC],2024-164F,2024-10-09T09:15:56.364192,15.76663464,0.0001409,53.1553,336.7584,81.1520,278.9661,0,U,61055,999,432,6.5351E-06,4.12E-06,0
STARLINK-11156 [DTC],2024-164G,2024-10-09T10:40:10.668288,15.76743602,0.000117,53.1558,336.4116,147.7518,212.3574,0,U,61056,999,433,1.7876E-04,2.872E-04,0
STARLINK-11231 [DTC],2024-164H,2024-10-09T14:00:01.000224,15.69726792,0.000113,53.1574,335.8604,115.5679,242.9572,0,U,61057,999,528,1.146E-04,1.3327E-04,0
STARLINK-11299 [DTC],2024-164J,2024-10-09T14:00:01.000224,15.69721688,0.0000946,53.1575,335.8028,86.1683,300.0869,0,U,61058,999,538,3.1959E-04,3.8327E-04,0
STARLINK-11154 [DTC],2024-164K,2024-10-09T14:00:01.000224,15.69735726,0.0000938,53.1581,335.7444,71.8438,342.1432,0,U,61059,999,538,3.8461E-05,4.078E-05,0
STARLINK-11297 [DTC],2024-164L,2024-10-09T14:00:01.000224,15.69682022,0.0001111,53.1579,335.6877,78.3642,3.4205,0,U,61060,999,522,2.6425E-04,3.1509E-04,0
STARLINK-11233 [DTC],2024-164M,2024-10-09T14:00:01.000224,15.69732835,0.0001157,53.1577,335.6313,40.8635,68.5960,0,U,61061,999,542,1.1907E-04,1.3874E-04,0
STARLINK-11236 [DTC],2024-164N,2024-10-09T14:00:01.000224,15.69739598,0.0001255,53.1579,335.5731,70.3636,66.8246,0,U,61062,999,526,9.198E-05,1.0582E-04,0
STARLINK-32350,2024-164P,2024-10-09T11:28:04.392768,15.49303914,0.0001329,53.1588,338.0783,75.8591,284.2566,0,U,61063,999,431,-2.6671E-05,-1.931E-05,0
STARLINK-32378,2024-164Q,2024-10-09T11:27:05.055840,15.49301645,0.000128,53.1598,338.0715,79.0482,281.0671,0,U,61064,999,431,-6.4966E-05,-4.059E-05,0
STARLINK-32321,2024-164R,2024-10-09T14:00:01.000224,15.39588921,0.0002026,53.1602,337.7262,66.3116,86.9676,0,U,61065,999,541,1.3315E-03,5.3178E-04,0
STARLINK-32381,2024-164S,2024-10-09T11:26:32.979840,15.49295102,0.0001233,53.1590,338.0738,102.2419,257.8728,0,U,61066,999,431,-2.4228E-04,-1.3892E-04,0
STARLINK-32368,2024-164T,2024-10-09T11:26:05.984160,15.49317037,0.0001336,53.1586,338.0708,63.9574,296.1573,0,U,61067,999,431,1.797E-04,9.561E-05,0
STARLINK-32385,2024-164U,2024-10-09T14:00:01.000224,15.39583005,0.0000878,53.1602,337.6740,81.5506,97.4823,0,U,61068,999,541,1.4631E-03,5.8502E-04,0
STARLINK-32380,2024-164V,2024-10-09T14:00:01.000224,15.43518323,0.0001368,53.1595,337.5886,73.4687,148.5722,0,U,61069,999,532,-3.5606E-02,-1.469744E-02,0
STARLINK-32375,2024-164W,2024-10-09T11:25:35.332032,15.49311953,0.0000943,53.1602,338.0682,106.8480,253.2633,0,U,61070,999,431,4.6142E-05,2.119E-05,0
QAEM 100 R/B,2024-165A,2024-10-09T12:59:34.317024,15.05282486,0.000623,64.0953,257.5245,259.2181,100.8230,0,U,61071,999,380,6.0478E-04,8.517E-05,0
CHAMRAN-1,2024-165B,2024-10-09T13:30:17.653248,15.08055995,0.0015898,64.0894,257.0962,290.9492,68.9920,0,U,61072,999,381,1.0447E-03,1.6066E-04,0
2024-166A,2024-166A,2024-10-09T12:35:49.123104,15.80877206,0.0015106,96.7645,178.5252,154.4973,205.7045,0,U,61179,999,351,3.6307E-04,7.0718E-04,0
