SOYUZ-MS 26             
1 61043U 24162A   24283.54185571  .00038437  00000+0  68853-3 0  9991
2 61043  51.6395 108.9836 0008027  61.2002 349.0996 15.49541134476125
SPACEMOBILE-003         
1 61045U 24163A   24283.37490856  .00006208  00000+0  32277-3 0  9992
2 61045  52.9762 258.3711 0013640  43.6099 316.5969 15.17279934  4103
SPACEMOBILE-005         
1 61046U 24163B   24283.30497744  .00006772  00000+0  34828-3 0  9999
2 61046  52.9780 258.6563 0014210  47.6136 312.6057 15.17511615  4089
SPACEMOBILE-001         
1 61047U 24163C   24283.30416025  .00006761  00000+0  34729-3 0  9991
2 61047  52.9745 258.6318 0014020  48.2338 311.9850 15.17558797  4084
SPACEMOBILE-002         
1 61048U 24163D   24283.23362582  .00007973  00000+0  40357-3 0  9992
2 61048  52.9784 258.9134 0013436  51.2001 309.0189 15.17832526  4075
SPACEMOBILE-004         
1 61049U 24163E   24283.29635566  .00016315  00000+0  80284-3 0  9997
2 61049  52.9784 258.5992 0013896  56.2066 304.0249 15.18071251  4084
STARLINK-11286 [DTC]    
1 61050U 24164A   24283.41048545  .00049917  00000+0  30762-3 0  9999
2 61050  53.1569 336.9203 0002098  42.7008 317.4175 15.76696038  4327
STARLINK-11252 [DTC]    
1 61051U 24164B   24283.40557174  .00060713  00000+0  37146-3 0  9992
2 61051  53.1562 336.8866 0001650 137.0772 223.0378 15.76779244  4322
STARLINK-11284 [DTC]    
1 61052U 24164C   24283.40071120  .00059106  00000+0  36361-3 0  9997
2 61052  53.1552 336.8547 0001216 114.5373 245.5775 15.76666678  4329
STARLINK-11230 [DTC]    
1 61053U 24164D   24283.45921743  .00073150  00000+0  44794-3 0  9992
2 61053  53.1544 336.5050 0000901  92.2887 267.8237 15.76686061  4338
STARLINK-11294 [DTC]    
1 61054U 24164E   24283.45433541 -.00020844  00000+0 -12420-3 0  9992
2 61054  53.1541 336.4742 0001243 109.7444 250.3711 15.76632454  4337
STARLINK-11268 [DTC]    
1 61055U 24164F   24283.38606903  .00000412  00000+0  65351-5 0  9999
2 61055  53.1553 336.7584 0001409  81.1520 278.9661 15.76663464  4324
STARLINK-11156 [DTC]    
1 61056U 24164G   24283.44456792  .00028720  00000+0  17876-3 0  9995
2 61056  53.1558 336.4116 0001170 147.7518 212.3574 15.76743602  4338
STARLINK-11231 [DTC]    
1 61057U 24164H   24283.58334491  .00013327  00000+0  11460-3 0  9992
2 61057  53.1574 335.8604 0001130 115.5679 242.9572 15.69726792  5284
STARLINK-11299 [DTC]    
1 61058U 24164J   24283.58334491  .00038327  00000+0  31959-3 0  9995
2 61058  53.1575 335.8028 0000946  86.1683 300.0869 15.69721688  5383
STARLINK-11154 [DTC]    
1 61059U 24164K   24283.58334491  .00004078  00000+0  38461-4 0  9998
2 61059  53.1581 335.7444 0000938  71.8438 342.1432 15.69735726  5383
STARLINK-11297 [DTC]    
1 61060U 24164L   24283.58334491  .00031509  00000+0  26425-3 0  9995
2 61060  53.1579 335.6877 0001111  78.3642   3.4205 15.69682022  5222
STARLINK-11233 [DTC]    
1 61061U 24164M   24283.58334491  .00013874  00000+0  11907-3 0  9990
2 61061  53.1577 335.6313 0001157  40.8635  68.5960 15.69732835  5422
STARLINK-11236 [DTC]    
1 61062U 24164N   24283.58334491  .00010582  00000+0  91980-4 0  9994
2 61062  53.1579 335.5731 0001255  70.3636  66.8246 15.69739598  5269
STARLINK-32350          
1 61063U 24164P   24283.47782862 -.00001931  00000+0 -26671-4 0  9997
2 61063  53.1588 338.0783 0001329  75.8591 284.2566 15.49303914  4310
STARLINK-32378          
1 61064U 24164Q   24283.47714185 -.00004059  00000+0 -64966-4 0  9994
2 61064  53.1598 338.0715 0001280  79.0482 281.0671 15.49301645  4319
STARLINK-32321          
1 61065U 24164R   24283.58334491  .00053178  00000+0  13315-2 0  9999
2 61065  53.1602 337.7262 0002026  66.3116  86.9676 15.39588921  5413
STARLINK-32381          
1 61066U 24164S   24283.47677060 -.00013892  00000+0 -24228-3 0  9997
2 61066  53.1590 338.0738 0001233 102.2419 257.8728 15.49295102  4319
STARLINK-32368          
1 61067U 24164T   24283.47645815  .00009561  00000+0  17970-3 0  9993
2 61067  53.1586 338.0708 0001336  63.9574 296.1573 15.49317037  4317
STARLINK-32385          
1 61068U 24164U   24283.58334491  .00058502  00000+0  14631-2 0  9990
2 61068  53.1602 337.6740 0000878  81.5506  97.4823 15.39583005  5410
STARLINK-32380          
1 61069U 24164V   24283.58334491 -.01469744  00000+0 -35606-1 0  9992
2 61069  53.1595 337.5886 0001368  73.4687 148.5722 15.43518323  5329
STARLINK-32375          
1 61070U 24164W   24283.47610338  .00002119  00000+0  46142-4 0  9995
2 61070  53.1602 338.0682 0000943 106.8480 253.2633 15.49311953  4319
QAEM 100 R/B            
1 61071U 24165A   24283.54136941  .00008517  00000+0  60478-3 0  9993
2 61071  64.0953 257.5245 0006230 259.2181 100.8230 15.05282486  3809
CHAMRAN-1               
1 61072U 24165B   24283.56270432  .00016066  00000+0  10447-2 0  9998
2 61072  64.0894 257.0962 0015898 290.9492  68.9920 15.08055995  3819
2024-166A               
1 61179U 24166A   24283.52487411  .00070718  00000+0  36307-3 0  9998
2 61179  96.7645 178.5252 0015106 154.4973 205.7045 15.80877206  3515
